ONEWEB-0289             
1 49079U 21075E   23233.21056371 -.00000127  00000+0 -36087-3 0  9990
2 49079  87.9185 210.7094 0002010  86.4593 273.6769 13.17649218 99404
ONEWEB-0290             
1 49080U 21075F   23232.96587854 -.00000087  00000+0 -25807-3 0  9991
2 49080  87.9187 210.7805 0002432  86.1265 274.0144 13.17646274 98791
ONEWEB-0291             
1 49081U 21075G   23233.17678688  .00000050  00000+0  96177-4 0  9999
2 49081  87.9186 210.7248 0002326  78.8115 281.3278 13.17649890 98826
ONEWEB-0293             
1 49082U 21075H   23233.20212989  .00000016  00000+0  72343-5 0  9994
2 49082  87.9186 210.7087 0002287  81.6764 278.4626 13.17649329 98849
ONEWEB-0294             
1 49083U 21075J   23233.82934599 -.00000022  00000+0 -97856-4 0  9995
2 49083  87.9030 195.4695 0002455  86.3885 273.7524 13.12441369100416
ONEWEB-0295             
1 49084U 21075K   23233.20419955 -.00000515  00000+0 -13597-2 0  9997
2 49084  87.9189 210.6767 0002326  71.4989 288.6395 13.17649201 98786
ONEWEB-0296             
1 49085U 21075L   23233.81345933  .00000450  00000+0  12164-2 0  9994
2 49085  87.9043 195.4720 0002718  65.6764 294.4648 13.12437908100410
ONEWEB-0297             
1 49086U 21075M   23233.46191828 -.00000416  00000+0 -11912-2 0  9992
2 49086  87.9034 195.5243 0001723  82.4459 277.6865 13.12436442100972
